SL-3 R/B                
1 13403U 82079B   26042.93908516  .00005985  00000+0  24111-3 0  9990
2 13403  81.1442 223.4747 0024163 253.1155 106.7429 15.24413182373777
SL-14 R/B               
1 13553U 82092B   26042.87619882  .00000623  00000+0  67170-4 0  9996
2 13553  82.5707 165.5361 0021078  30.7572  90.4616 14.86638017325096
SL-3 R/B                
1 13819U 83010B   26042.93382849  .00015812  00000+0  32771-3 0  9993
2 13819  81.1028  33.8014 0018202 132.5450 227.7334 15.45424872353962
SL-3 R/B                
1 14208U 83075B   26042.92392048  .00012712  00000+0  34257-3 0  9995
2 14208  97.6134  46.5430 0020654 326.8376  33.1572 15.37752565326199
COSMOS 1536             
1 14699U 84013A   26042.71289562  .00006177  00000+0  25700-3 0  9996
2 14699  82.5469 133.6606 0014593  19.7386 340.4413 15.23476103268665
SL-14 R/B               
1 14820U 84027B   26042.70067115  .00000452  00000+0  48774-4 0  9991
2 14820  82.5394 269.3931 0019342  61.8142 298.5025 14.85950506243779
SL-8 R/B                
1 15483U 85006B   26042.91690941  .00000235  00000+0  86531-4 0  9999
2 15483  74.0467 308.5730 0019399 231.4730 207.8101 14.37770521150325
SL-12 R/B(2)            
1 15772U 85042D   26042.74723965  .00000140  00000+0  84299-4 0  9998
2 15772  71.1087 142.5376 0034744 169.8152 306.1122 14.21975225110702
SL-14 R/B               
1 15945U 85069B   26042.96258761  .00000601  00000+0  65296-4 0  9998
2 15945  82.5241  49.1293 0017198 278.5680  81.3588 14.86402507169015
SL-16 R/B               
1 16182U 85097B   26042.86989764 -.00000199  00000+0 -75913-4 0  9997
2 16182  71.0020 194.9075 0009704 289.8410 182.4138 14.16595725 83572
SL-14 R/B               
1 16496U 86006B   26042.74450905  .00000726  00000+0  74522-4 0  9992
2 16496  82.5260 284.1588 0076646 359.9099   0.2090 14.86780027145352
COSMOS 1743             
1 16719U 86034A   26042.62261008  .00035364  00000+0  49447-3 0  9995
2 16719  82.5329 101.1479 0004807  44.2386 315.9252 15.56652628176191
