CCSDS_OMM_VERS = 2.0
CREATION_DATE  = 
ORIGINATOR     = 

OBJECT_NAME    = SL-3 R/B
OBJECT_ID      = 1982-079B
CENTER_NAME    = EARTH
REF_FRAME      = TEME
TIME_SYSTEM    = UTC
MEAN_ELEMENT_THEORY = SGP/SGP4

EPOCH          = 2026-02-11T22:32:16.957824
MEAN_MOTION    = 15.24413182
ECCENTRICITY   = .00241631
INCLINATION    = 81.1442
RA_OF_ASC_NODE = 223.4747
ARG_OF_PERICENTER = 253.1155
MEAN_ANOMALY   = 106.7429

EPHEMERIS_TYPE = 0
CLASSIFICATION_TYPE = U
NORAD_CAT_ID   = 13403
ELEMENT_SET_NO = 999
REV_AT_EPOCH   = 37377
BSTAR          = .24111055E-3
MEAN_MOTION_DOT = .5985E-4
MEAN_MOTION_DDOT = 0

CCSDS_OMM_VERS = 2.0
CREATION_DATE  = 
ORIGINATOR     = 

OBJECT_NAME    = SL-14 R/B
OBJECT_ID      = 1982-092B
CENTER_NAME    = EARTH
REF_FRAME      = TEME
TIME_SYSTEM    = UTC
MEAN_ELEMENT_THEORY = SGP/SGP4

EPOCH          = 2026-02-11T21:01:43.578048
MEAN_MOTION    = 14.86638017
ECCENTRICITY   = .00210781
INCLINATION    = 82.5707
RA_OF_ASC_NODE = 165.5361
ARG_OF_PERICENTER = 30.7572
MEAN_ANOMALY   = 90.4616

EPHEMERIS_TYPE = 0
CLASSIFICATION_TYPE = U
NORAD_CAT_ID   = 13553
ELEMENT_SET_NO = 999
REV_AT_EPOCH   = 32509
BSTAR          = .67170378E-4
MEAN_MOTION_DOT = .623E-5
MEAN_MOTION_DDOT = 0

CCSDS_OMM_VERS = 2.0
CREATION_DATE  = 
ORIGINATOR     = 

OBJECT_NAME    = SL-3 R/B
OBJECT_ID      = 1983-010B
CENTER_NAME    = EARTH
REF_FRAME      = TEME
TIME_SYSTEM    = UTC
MEAN_ELEMENT_THEORY = SGP/SGP4

EPOCH          = 2026-02-11T22:24:42.781536
MEAN_MOTION    = 15.45424872
ECCENTRICITY   = .0018202
INCLINATION    = 81.1028
RA_OF_ASC_NODE = 33.8014
ARG_OF_PERICENTER = 132.5450
MEAN_ANOMALY   = 227.7334

EPHEMERIS_TYPE = 0
CLASSIFICATION_TYPE = U
NORAD_CAT_ID   = 13819
ELEMENT_SET_NO = 999
REV_AT_EPOCH   = 35396
BSTAR          = .32770773E-3
MEAN_MOTION_DOT = .15812E-3
MEAN_MOTION_DDOT = 0

CCSDS_OMM_VERS = 2.0
CREATION_DATE  = 
ORIGINATOR     = 

OBJECT_NAME    = SL-3 R/B
OBJECT_ID      = 1983-075B
CENTER_NAME    = EARTH
REF_FRAME      = TEME
TIME_SYSTEM    = UTC
MEAN_ELEMENT_THEORY = SGP/SGP4

EPOCH          = 2026-02-11T22:10:26.729472
MEAN_MOTION    = 15.37752565
ECCENTRICITY   = .00206545
INCLINATION    = 97.6134
RA_OF_ASC_NODE = 46.5430
ARG_OF_PERICENTER = 326.8376
MEAN_ANOMALY   = 33.1572

EPHEMERIS_TYPE = 0
CLASSIFICATION_TYPE = U
NORAD_CAT_ID   = 14208
ELEMENT_SET_NO = 999
REV_AT_EPOCH   = 32619
BSTAR          = .34257114E-3
MEAN_MOTION_DOT = .12712E-3
MEAN_MOTION_DDOT = 0

CCSDS_OMM_VERS = 2.0
CREATION_DATE  = 
ORIGINATOR     = 

OBJECT_NAME    = COSMOS 1536
OBJECT_ID      = 1984-013A
CENTER_NAME    = EARTH
REF_FRAME      = TEME
TIME_SYSTEM    = UTC
MEAN_ELEMENT_THEORY = SGP/SGP4

EPOCH          = 2026-02-11T17:06:34.181568
MEAN_MOTION    = 15.23476103
ECCENTRICITY   = .00145936
INCLINATION    = 82.5469
RA_OF_ASC_NODE = 133.6606
ARG_OF_PERICENTER = 19.7386
MEAN_ANOMALY   = 340.4413

EPHEMERIS_TYPE = 0
CLASSIFICATION_TYPE = U
NORAD_CAT_ID   = 14699
ELEMENT_SET_NO = 999
REV_AT_EPOCH   = 26866
BSTAR          = .25699957E-3
MEAN_MOTION_DOT = .6177E-4
MEAN_MOTION_DDOT = 0

CCSDS_OMM_VERS = 2.0
CREATION_DATE  = 
ORIGINATOR     = 

OBJECT_NAME    = SL-14 R/B
OBJECT_ID      = 1984-027B
CENTER_NAME    = EARTH
REF_FRAME      = TEME
TIME_SYSTEM    = UTC
MEAN_ELEMENT_THEORY = SGP/SGP4

EPOCH          = 2026-02-11T16:48:57.987360
MEAN_MOTION    = 14.85950506
ECCENTRICITY   = .00193423
INCLINATION    = 82.5394
RA_OF_ASC_NODE = 269.3931
ARG_OF_PERICENTER = 61.8142
MEAN_ANOMALY   = 298.5025

EPHEMERIS_TYPE = 0
CLASSIFICATION_TYPE = U
NORAD_CAT_ID   = 14820
ELEMENT_SET_NO = 999
REV_AT_EPOCH   = 24377
BSTAR          = .48773732E-4
MEAN_MOTION_DOT = .452E-5
MEAN_MOTION_DDOT = 0

CCSDS_OMM_VERS = 2.0
CREATION_DATE  = 
ORIGINATOR     = 

OBJECT_NAME    = SL-8 R/B
OBJECT_ID      = 1985-006B
CENTER_NAME    = EARTH
REF_FRAME      = TEME
TIME_SYSTEM    = UTC
MEAN_ELEMENT_THEORY = SGP/SGP4

EPOCH          = 2026-02-11T22:00:20.973024
MEAN_MOTION    = 14.37770521
ECCENTRICITY   = .00193994
INCLINATION    = 74.0467
RA_OF_ASC_NODE = 308.5730
ARG_OF_PERICENTER = 231.4730
MEAN_ANOMALY   = 207.8101

EPHEMERIS_TYPE = 0
CLASSIFICATION_TYPE = U
NORAD_CAT_ID   = 15483
ELEMENT_SET_NO = 999
REV_AT_EPOCH   = 15032
BSTAR          = .86530781E-4
MEAN_MOTION_DOT = .235E-5
MEAN_MOTION_DDOT = 0

CCSDS_OMM_VERS = 2.0
CREATION_DATE  = 
ORIGINATOR     = 

OBJECT_NAME    = SL-12 R/B(2)
OBJECT_ID      = 1985-042D
CENTER_NAME    = EARTH
REF_FRAME      = TEME
TIME_SYSTEM    = UTC
MEAN_ELEMENT_THEORY = SGP/SGP4

EPOCH          = 2026-02-11T17:56:01.505760
MEAN_MOTION    = 14.21975225
ECCENTRICITY   = .00347447
INCLINATION    = 71.1087
RA_OF_ASC_NODE = 142.5376
ARG_OF_PERICENTER = 169.8152
MEAN_ANOMALY   = 306.1122

EPHEMERIS_TYPE = 0
CLASSIFICATION_TYPE = U
NORAD_CAT_ID   = 15772
ELEMENT_SET_NO = 999
REV_AT_EPOCH   = 11070
BSTAR          = .84298862E-4
MEAN_MOTION_DOT = .14E-5
MEAN_MOTION_DDOT = 0

CCSDS_OMM_VERS = 2.0
CREATION_DATE  = 
ORIGINATOR     = 

OBJECT_NAME    = SL-14 R/B
OBJECT_ID      = 1985-069B
CENTER_NAME    = EARTH
REF_FRAME      = TEME
TIME_SYSTEM    = UTC
MEAN_ELEMENT_THEORY = SGP/SGP4

EPOCH          = 2026-02-11T23:06:07.569504
MEAN_MOTION    = 14.86402507
ECCENTRICITY   = .00171984
INCLINATION    = 82.5241
RA_OF_ASC_NODE = 49.1293
ARG_OF_PERICENTER = 278.5680
MEAN_ANOMALY   = 81.3588

EPHEMERIS_TYPE = 0
CLASSIFICATION_TYPE = U
NORAD_CAT_ID   = 15945
ELEMENT_SET_NO = 999
REV_AT_EPOCH   = 16901
BSTAR          = .65295865E-4
MEAN_MOTION_DOT = .601E-5
MEAN_MOTION_DDOT = 0

CCSDS_OMM_VERS = 2.0
CREATION_DATE  = 
ORIGINATOR     = 

OBJECT_NAME    = SL-16 R/B
OBJECT_ID      = 1985-097B
CENTER_NAME    = EARTH
REF_FRAME      = TEME
TIME_SYSTEM    = UTC
MEAN_ELEMENT_THEORY = SGP/SGP4

EPOCH          = 2026-02-11T20:52:39.156096
MEAN_MOTION    = 14.16595725
ECCENTRICITY   = .00097041
INCLINATION    = 71.0020
RA_OF_ASC_NODE = 194.9075
ARG_OF_PERICENTER = 289.8410
MEAN_ANOMALY   = 182.4138

EPHEMERIS_TYPE = 0
CLASSIFICATION_TYPE = U
NORAD_CAT_ID   = 16182
ELEMENT_SET_NO = 999
REV_AT_EPOCH   = 8357
BSTAR          = -.75913201E-4
MEAN_MOTION_DOT = -.199E-5
MEAN_MOTION_DDOT = 0

CCSDS_OMM_VERS = 2.0
CREATION_DATE  = 
ORIGINATOR     = 

OBJECT_NAME    = SL-14 R/B
OBJECT_ID      = 1986-006B
CENTER_NAME    = EARTH
REF_FRAME      = TEME
TIME_SYSTEM    = UTC
MEAN_ELEMENT_THEORY = SGP/SGP4

EPOCH          = 2026-02-11T17:52:05.581920
MEAN_MOTION    = 14.86780027
ECCENTRICITY   = .00766462
INCLINATION    = 82.5260
RA_OF_ASC_NODE = 284.1588
ARG_OF_PERICENTER = 359.9099
MEAN_ANOMALY   = 0.2090

EPHEMERIS_TYPE = 0
CLASSIFICATION_TYPE = U
NORAD_CAT_ID   = 16496
ELEMENT_SET_NO = 999
REV_AT_EPOCH   = 14535
BSTAR          = .74521955E-4
MEAN_MOTION_DOT = .726E-5
MEAN_MOTION_DDOT = 0

CCSDS_OMM_VERS = 2.0
CREATION_DATE  = 
ORIGINATOR     = 

OBJECT_NAME    = COSMOS 1743
OBJECT_ID      = 1986-034A
CENTER_NAME    = EARTH
REF_FRAME      = TEME
TIME_SYSTEM    = UTC
MEAN_ELEMENT_THEORY = SGP/SGP4

EPOCH          = 2026-02-11T14:56:33.510912
MEAN_MOTION    = 15.56652628
ECCENTRICITY   = .00048079
INCLINATION    = 82.5329
RA_OF_ASC_NODE = 101.1479
ARG_OF_PERICENTER = 44.2386
MEAN_ANOMALY   = 315.9252

EPHEMERIS_TYPE = 0
CLASSIFICATION_TYPE = U
NORAD_CAT_ID   = 16719
ELEMENT_SET_NO = 999
REV_AT_EPOCH   = 17619
BSTAR          = .49447304E-3
MEAN_MOTION_DOT = .35364E-3
MEAN_MOTION_DDOT = 0

